{
  "type": "FeatureCollection",
  "features": [
    {
      "type": "Feature",
      "properties": {
        "norad_id": 34056,
        "name": "COSMOS 2251 DEB",
        "group": "cosmos-2251-debris",
        "lat": -33.93177898121258,
        "lon": -116.88990346541698,
        "alt_km": 871.615034352456,
        "timestamp": "2025-12-26T08:37:54.973268+00:00",
        "meta_object_name": "COSMOS 2251 DEB",
        "meta_object_id": "1993-036JT",
        "meta_epoch": "2025-12-25T13:35:12.468192",
        "meta_mean_motion": 14.20599559,
        "meta_eccentricity": 0.0123692,
        "meta_inclination": 74.0581,
        "meta_ra_of_asc_node": 53.4416,
        "meta_arg_of_pericenter": 97.9047,
        "meta_mean_anomaly": 19.5232,
        "meta_ephemeris_type": 0,
        "meta_classification_type": "U",
        "meta_norad_cat_id": 34056,
        "meta_element_set_no": 999,
        "meta_rev_at_epoch": 86593,
        "meta_bstar": 0.00073456,
        "meta_mean_motion_dot": 1.683e-05,
        "meta_mean_motion_ddot": 0,
        "tle_line1": "1 34056U 93036JT  25359.56611653  .00001683  00000+0  73456-3 0  9991",
        "tle_line2": "2 34056  74.0581  53.4416 0123692  97.9047  19.5232 14.20599559865939"
      },
      "geometry": {
        "type": "Point",
        "coordinates": [
          -116.88990346541698,
          -33.93177898121258
        ]
      }
    },
    {
      "type": "Feature",
      "properties": {
        "norad_id": 34058,
        "name": "COSMOS 2251 DEB",
        "group": "cosmos-2251-debris",
        "lat": 72.08514348384382,
        "lon": -140.89950875249173,
        "alt_km": 922.8533547407296,
        "timestamp": "2025-12-26T08:37:54.973279+00:00",
        "meta_object_name": "COSMOS 2251 DEB",
        "meta_object_id": "1993-036JV",
        "meta_epoch": "2025-12-25T20:26:12.164352",
        "meta_mean_motion": 13.56097038,
        "meta_eccentricity": 0.03773293,
        "meta_inclination": 73.9318,
        "meta_ra_of_asc_node": 156.8596,
        "meta_arg_of_pericenter": 149.603,
        "meta_mean_anomaly": 336.5603,
        "meta_ephemeris_type": 0,
        "meta_classification_type": "U",
        "meta_norad_cat_id": 34058,
        "meta_element_set_no": 999,
        "meta_rev_at_epoch": 83320,
        "meta_bstar": 0.00080484436,
        "meta_mean_motion_dot": 8.73e-06,
        "meta_mean_motion_ddot": 0,
        "tle_line1": "1 34058U 93036JV  25359.85152968  .00000873  00000+0  80484-3 0  9993",
        "tle_line2": "2 34058  73.9318 156.8596 0377329 149.6030 336.5603 13.56097038833201"
      },
      "geometry": {
        "type": "Point",
        "coordinates": [
          -140.89950875249173,
          72.08514348384382
        ]
      }
    },
    {
      "type": "Feature",
      "properties": {
        "norad_id": 34059,
        "name": "COSMOS 2251 DEB",
        "group": "cosmos-2251-debris",
        "lat": 12.817877114222593,
        "lon": 164.31556173964228,
        "alt_km": 726.0632479427477,
        "timestamp": "2025-12-26T08:37:54.973289+00:00",
        "meta_object_name": "COSMOS 2251 DEB",
        "meta_object_id": "1993-036JW",
        "meta_epoch": "2025-12-25T19:56:17.993184",
        "meta_mean_motion": 14.53026462,
        "meta_eccentricity": 0.00183886,
        "meta_inclination": 74.0376,
        "meta_ra_of_asc_node": 161.5792,
        "meta_arg_of_pericenter": 237.9298,
        "meta_mean_anomaly": 249.8826,
        "meta_ephemeris_type": 0,
        "meta_classification_type": "U",
        "meta_norad_cat_id": 34059,
        "meta_element_set_no": 999,
        "meta_rev_at_epoch": 88649,
        "meta_bstar": 0.00090187113,
        "meta_mean_motion_dot": 3.705e-05,
        "meta_mean_motion_ddot": 0,
        "tle_line1": "1 34059U 93036JW  25359.83076381  .00003705  00000+0  90187-3 0  9994",
        "tle_line2": "2 34059  74.0376 161.5792 0018388 237.9298 249.8826 14.53026462886496"
      },
      "geometry": {
        "type": "Point",
        "coordinates": [
          164.31556173964228,
          12.817877114222593
        ]
      }
    },
    {
      "type": "Feature",
      "properties": {
        "norad_id": 34061,
        "name": "COSMOS 2251 DEB",
        "group": "cosmos-2251-debris",
        "lat": 69.83332208384842,
        "lon": 7.019566263166677,
        "alt_km": 762.9360814408938,
        "timestamp": "2025-12-26T08:37:54.973299+00:00",
        "meta_object_name": "COSMOS 2251 DEB",
        "meta_object_id": "1993-036JY",
        "meta_epoch": "2025-12-26T02:04:17.271264",
        "meta_mean_motion": 14.40383114,
        "meta_eccentricity": 0.002092,
        "meta_inclination": 74.0385,
        "meta_ra_of_asc_node": 238.7192,
        "meta_arg_of_pericenter": 313.753,
        "meta_mean_anomaly": 171.712,
        "meta_ephemeris_type": 0,
        "meta_classification_type": "U",
        "meta_norad_cat_id": 34061,
        "meta_element_set_no": 999,
        "meta_rev_at_epoch": 88372,
        "meta_bstar": 0.00026697,
        "meta_mean_motion_dot": 8.23e-06,
        "meta_mean_motion_ddot": 0,
        "tle_line1": "1 34061U 93036JY  25360.08631101  .00000823  00000+0  26697-3 0  9996",
        "tle_line2": "2 34061  74.0385 238.7192 0020920 313.7530 171.7120 14.40383114883726"
      },
      "geometry": {
        "type": "Point",
        "coordinates": [
          7.019566263166677,
          69.83332208384842
        ]
      }
    },
    {
      "type": "Feature",
      "properties": {
        "norad_id": 34062,
        "name": "COSMOS 2251 DEB",
        "group": "cosmos-2251-debris",
        "lat": -45.53256435799519,
        "lon": 94.2749104760901,
        "alt_km": 667.0452890634533,
        "timestamp": "2025-12-26T08:37:54.973309+00:00",
        "meta_object_name": "COSMOS 2251 DEB",
        "meta_object_id": "1993-036JZ",
        "meta_epoch": "2025-12-25T08:45:30.903264",
        "meta_mean_motion": 14.79163104,
        "meta_eccentricity": 0.007279,
        "meta_inclination": 74.0282,
        "meta_ra_of_asc_node": 113.1965,
        "meta_arg_of_pericenter": 189.6413,
        "meta_mean_anomaly": 227.0776,
        "meta_ephemeris_type": 0,
        "meta_classification_type": "U",
        "meta_norad_cat_id": 34062,
        "meta_element_set_no": 999,
        "meta_rev_at_epoch": 88782,
        "meta_bstar": 0.0027007,
        "meta_mean_motion_dot": 0.00020977,
        "meta_mean_motion_ddot": 0,
        "tle_line1": "1 34062U 93036JZ  25359.36494101  .00020977  00000+0  27007-2 0  9990",
        "tle_line2": "2 34062  74.0282 113.1965 0072790 189.6413 227.0776 14.79163104887823"
      },
      "geometry": {
        "type": "Point",
        "coordinates": [
          94.2749104760901,
          -45.53256435799519
        ]
      }
    },
    {
      "type": "Feature",
      "properties": {
        "norad_id": 34064,
        "name": "COSMOS 2251 DEB",
        "group": "cosmos-2251-debris",
        "lat": 6.407414699607447,
        "lon": 63.75823463637366,
        "alt_km": 764.0780078702555,
        "timestamp": "2025-12-26T08:37:54.973319+00:00",
        "meta_object_name": "COSMOS 2251 DEB",
        "meta_object_id": "1993-036KB",
        "meta_epoch": "2025-12-26T01:28:50.155104",
        "meta_mean_motion": 14.42380475,
        "meta_eccentricity": 0.002242,
        "meta_inclination": 74.0318,
        "meta_ra_of_asc_node": 246.1535,
        "meta_arg_of_pericenter": 310.9356,
        "meta_mean_anomaly": 115.8427,
        "meta_ephemeris_type": 0,
        "meta_classification_type": "U",
        "meta_norad_cat_id": 34064,
        "meta_element_set_no": 999,
        "meta_rev_at_epoch": 88334,
        "meta_bstar": 0.00044701,
        "meta_mean_motion_dot": 1.456e-05,
        "meta_mean_motion_ddot": 0,
        "tle_line1": "1 34064U 93036KB  25360.06169161  .00001456  00000+0  44701-3 0  9998",
        "tle_line2": "2 34064  74.0318 246.1535 0022420 310.9356 115.8427 14.42380475883347"
      },
      "geometry": {
        "type": "Point",
        "coordinates": [
          63.75823463637366,
          6.407414699607447
        ]
      }
    },
    {
      "type": "Feature",
      "properties": {
        "norad_id": 34065,
        "name": "COSMOS 2251 DEB",
        "group": "cosmos-2251-debris",
        "lat": -22.681691881124355,
        "lon": -133.8373922735642,
        "alt_km": 757.9551544293672,
        "timestamp": "2025-12-26T08:37:54.973329+00:00",
        "meta_object_name": "COSMOS 2251 DEB",
        "meta_object_id": "1993-036KC",
        "meta_epoch": "2025-12-26T02:46:01.399008",
        "meta_mean_motion": 14.38075941,
        "meta_eccentricity": 0.0016896,
        "meta_inclination": 74.0346,
        "meta_ra_of_asc_node": 233.4842,
        "meta_arg_of_pericenter": 328.7769,
        "meta_mean_anomaly": 183.0463,
        "meta_ephemeris_type": 0,
        "meta_classification_type": "U",
        "meta_norad_cat_id": 34065,
        "meta_element_set_no": 999,
        "meta_rev_at_epoch": 88397,
        "meta_bstar": 0.00014,
        "meta_mean_motion_dot": 3.98e-06,
        "meta_mean_motion_ddot": 0,
        "tle_line1": "1 34065U 93036KC  25360.11529397  .00000398  00000+0  14000-3 0  9999",
        "tle_line2": "2 34065  74.0346 233.4842 0016896 328.7769 183.0463 14.38075941883974"
      },
      "geometry": {
        "type": "Point",
        "coordinates": [
          -133.8373922735642,
          -22.681691881124355
        ]
      }
    }
  ]
}